{"type": "FeatureCollection", "features": [ {"type": "Feature", "properties": {"norad_id": 66413, "name": "HULIANWANG DIGUI 13B", "group": "last-30-days", "lat": 39.18047444239195, "lon": 79.9227547178983, "alt_km": 817.2521198278246, "timestamp": "2025-12-02T23:34:14.290145+00:00", "meta": {"OBJECT_NAME": "HULIANWANG DIGUI 13B", "OBJECT_ID": "2025-258B", "EPOCH": "2025-12-02T07:49:30.091008", "MEAN_MOTION": 14.23481506, "ECCENTRICITY": 0.00133924, "INCLINATION": 50.0009, "RA_OF_ASC_NODE": 305.864, "ARG_OF_PERICENTER": 321.7901, "MEAN_ANOMALY": 38.2062, "EPHEMERIS_TYPE": 0, "CLASSIFICATION_TYPE": "U", "NORAD_CAT_ID": 66413, "ELEMENT_SET_NO": 999, "REV_AT_EPOCH": 317, "BSTAR": 8.1244901e-05, "MEAN_MOTION_DOT": 2.7e-07, "MEAN_MOTION_DDOT": 0}, "tle": {"line1": "1 66413U 25258B   25336.32604272  .00000027  00000+0  81245-4 0  9999", "line2": "2 66413  50.0009 305.8640 0013392 321.7901  38.2062 14.23481506  3179"}}, "geometry": {"type": "Point", "coordinates": [79.9227547178983, 39.18047444239195]}}, {"type": "Feature", "properties": {"norad_id": 66414, "name": "HULIANWANG DIGUI 13C", "group": "last-30-days", "lat": 29.13617359793873, "lon": 95.18596495383379, "alt_km": 819.4426177346013, "timestamp": "2025-12-02T23:34:14.290155+00:00", "meta": {"OBJECT_NAME": "HULIANWANG DIGUI 13C", "OBJECT_ID": "2025-258C", "EPOCH": "2025-12-02T07:44:59.165664", "MEAN_MOTION": 14.23507164, "ECCENTRICITY": 0.00135846, "INCLINATION": 50.0046, "RA_OF_ASC_NODE": 305.8619, "ARG_OF_PERICENTER": 320.0716, "MEAN_ANOMALY": 39.9197, "EPHEMERIS_TYPE": 0, "CLASSIFICATION_TYPE": "U", "NORAD_CAT_ID": 66414, "ELEMENT_SET_NO": 999, "REV_AT_EPOCH": 317, "BSTAR": 0.00010364125, "MEAN_MOTION_DOT": 7.8e-07, "MEAN_MOTION_DDOT": 0}, "tle": {"line1": "1 66414U 25258C   25336.32290701  .00000078  00000+0  10364-3 0  9997", "line2": "2 66414  50.0046 305.8619 0013584 320.0716  39.9197 14.23507164  3172"}}, "geometry": {"type": "Point", "coordinates": [95.18596495383379, 29.13617359793873]}}, {"type": "Feature", "properties": {"norad_id": 66415, "name": "HULIANWANG DIGUI 13D", "group": "last-30-days", "lat": 7.000260264203728, "lon": 117.11038199716928, "alt_km": 822.0783082039234, "timestamp": "2025-12-02T23:34:14.290165+00:00", "meta": {"OBJECT_NAME": "HULIANWANG DIGUI 13D", "OBJECT_ID": "2025-258D", "EPOCH": "2025-12-02T07:36:27.510048", "MEAN_MOTION": 14.234954, "ECCENTRICITY": 0.00133929, "INCLINATION": 50.0042, "RA_OF_ASC_NODE": 305.8264, "ARG_OF_PERICENTER": 326.8111, "MEAN_ANOMALY": 33.1961, "EPHEMERIS_TYPE": 0, "CLASSIFICATION_TYPE": "U", "NORAD_CAT_ID": 66415, "ELEMENT_SET_NO": 999, "REV_AT_EPOCH": 317, "BSTAR": 0.00013084593, "MEAN_MOTION_DOT": 1.4e-06, "MEAN_MOTION_DDOT": 0}, "tle": {"line1": "1 66415U 25258D   25336.31698507  .00000140  00000+0  13085-3 0  9996", "line2": "2 66415  50.0042 305.8264 0013392 326.8111  33.1961 14.23495400  3179"}}, "geometry": {"type": "Point", "coordinates": [117.11038199716928, 7.000260264203728]}}, {"type": "Feature", "properties": {"norad_id": 66416, "name": "HULIANWANG DIGUI 13E", "group": "last-30-days", "lat": 23.078866381775672, "lon": 102.1124485247224, "alt_km": 819.9431292386716, "timestamp": "2025-12-02T23:34:14.290177+00:00", "meta": {"OBJECT_NAME": "HULIANWANG DIGUI 13E", "OBJECT_ID": "2025-258E", "EPOCH": "2025-12-02T04:20:20.565312", "MEAN_MOTION": 14.23468154, "ECCENTRICITY": 0.0012751, "INCLINATION": 50.0045, "RA_OF_ASC_NODE": 306.4445, "ARG_OF_PERICENTER": 327.4493, "MEAN_ANOMALY": 32.5632, "EPHEMERIS_TYPE": 0, "CLASSIFICATION_TYPE": "U", "NORAD_CAT_ID": 66416, "ELEMENT_SET_NO": 999, "REV_AT_EPOCH": 315, "BSTAR": 0.00010445686, "MEAN_MOTION_DOT": 8e-07, "MEAN_MOTION_DDOT": 0}, "tle": {"line1": "1 66416U 25258E   25336.18079358  .00000080  00000+0  10446-3 0  9990", "line2": "2 66416  50.0045 306.4445 0012751 327.4493  32.5632 14.23468154  3151"}}, "geometry": {"type": "Point", "coordinates": [102.1124485247224, 23.078866381775672]}}, {"type": "Feature", "properties": {"norad_id": 66417, "name": "HULIANWANG DIGUI 13F", "group": "last-30-days", "lat": 18.046712861405517, "lon": 107.16013353456619, "alt_km": 820.3622762575087, "timestamp": "2025-12-02T23:34:14.290186+00:00", "meta": {"OBJECT_NAME": "HULIANWANG DIGUI 13F", "OBJECT_ID": "2025-258F", "EPOCH": "2025-12-02T07:40:35.083200", "MEAN_MOTION": 14.23476143, "ECCENTRICITY": 0.00123778, "INCLINATION": 49.9997, "RA_OF_ASC_NODE": 305.8246, "ARG_OF_PERICENTER": 326.205, "MEAN_ANOMALY": 33.8073, "EPHEMERIS_TYPE": 0, "CLASSIFICATION_TYPE": "U", "NORAD_CAT_ID": 66417, "ELEMENT_SET_NO": 999, "REV_AT_EPOCH": 317, "BSTAR": 0.00011880035, "MEAN_MOTION_DOT": 1.13e-06, "MEAN_MOTION_DDOT": 0}, "tle": {"line1": "1 66417U 25258F   25336.31985050  .00000113  00000+0  11880-3 0  9991", "line2": "2 66417  49.9997 305.8246 0012377 326.2050  33.8073 14.23476143  3179"}}, "geometry": {"type": "Point", "coordinates": [107.16013353456619, 18.046712861405517]}}, {"type": "Feature", "properties": {"norad_id": 66418, "name": "HULIANWANG DIGUI 13G", "group": "last-30-days", "lat": 1.867082682350326, "lon": 121.43070643747517, "alt_km": 821.4020544237956, "timestamp": "2025-12-02T23:34:14.290198+00:00", "meta": {"OBJECT_NAME": "HULIANWANG DIGUI 13G", "OBJECT_ID": "2025-258G", "EPOCH": "2025-12-02T07:34:33.616704", "MEAN_MOTION": 14.23487475, "ECCENTRICITY": 0.00125057, "INCLINATION": 50.0007, "RA_OF_ASC_NODE": 305.8041, "ARG_OF_PERICENTER": 322.1472, "MEAN_ANOMALY": 37.8561, "EPHEMERIS_TYPE": 0, "CLASSIFICATION_TYPE": "U", "NORAD_CAT_ID": 66418, "ELEMENT_SET_NO": 999, "REV_AT_EPOCH": 317, "BSTAR": 0.00013630867, "MEAN_MOTION_DOT": 1.53e-06, "MEAN_MOTION_DDOT": 0}, "tle": {"line1": "1 66418U 25258G   25336.31566686  .00000153  00000+0  13631-3 0  9992", "line2": "2 66418  50.0007 305.8041 0012505 322.1472  37.8561 14.23487475  3170"}}, "geometry": {"type": "Point", "coordinates": [121.43070643747517, 1.867082682350326]}}, {"type": "Feature", "properties": {"norad_id": 66419, "name": "HULIANWANG DIGUI 13H", "group": "last-30-days", "lat": -3.9190962532700437, "lon": 126.27894041117816, "alt_km": 821.2272572982465, "timestamp": "2025-12-02T23:34:14.290210+00:00", "meta": {"OBJECT_NAME": "HULIANWANG DIGUI 13H", "OBJECT_ID": "2025-258H", "EPOCH": "2025-12-02T07:32:26.898144", "MEAN_MOTION": 14.23504745, "ECCENTRICITY": 0.00120562, "INCLINATION": 50.0005, "RA_OF_ASC_NODE": 305.7927, "ARG_OF_PERICENTER": 323.1241, "MEAN_ANOMALY": 36.8842, "EPHEMERIS_TYPE": 0, "CLASSIFICATION_TYPE": "U", "NORAD_CAT_ID": 66419, "ELEMENT_SET_NO": 999, "REV_AT_EPOCH": 317, "BSTAR": 0.00013864058, "MEAN_MOTION_DOT": 1.58e-06, "MEAN_MOTION_DDOT": 0}, "tle": {"line1": "1 66419U 25258H   25336.31420021  .00000158  00000+0  13864-3 0  9998", "line2": "2 66419  50.0005 305.7927 0012056 323.1241  36.8842 14.23504745  3178"}}, "geometry": {"type": "Point", "coordinates": [126.27894041117816, -3.9190962532700437]}}, {"type": "Feature", "properties": {"norad_id": 66420, "name": "HULIANWANG DIGUI 13J", "group": "last-30-days", "lat": -8.502044653523857, "lon": 130.1907509893838, "alt_km": 821.6633781740065, "timestamp": "2025-12-02T23:34:14.290220+00:00", "meta": {"OBJECT_NAME": "HULIANWANG DIGUI 13J", "OBJECT_ID": "2025-258J", "EPOCH": "2025-12-02T07:30:44.714592", "MEAN_MOTION": 14.23472286, "ECCENTRICITY": 0.00114612, "INCLINATION": 50.0026, "RA_OF_ASC_NODE": 305.7969, "ARG_OF_PERICENTER": 330.388, "MEAN_ANOMALY": 29.6383, "EPHEMERIS_TYPE": 0, "CLASSIFICATION_TYPE": "U", "NORAD_CAT_ID": 66420, "ELEMENT_SET_NO": 999, "REV_AT_EPOCH": 316, "BSTAR": 0.00013790136, "MEAN_MOTION_DOT": 1.56e-06, "MEAN_MOTION_DDOT": 0}, "tle": {"line1": "1 66420U 25258J   25336.31301753  .00000156  00000+0  13790-3 0  9996", "line2": "2 66420  50.0026 305.7969 0011461 330.3880  29.6383 14.23472286  3160"}}, "geometry": {"type": "Point", "coordinates": [130.1907509893838, -8.502044653523857]}}, {"type": "Feature", "properties": {"norad_id": 66421, "name": "CZ-12 R/B", "group": "last-30-days", "lat": 14.079624505790784, "lon": 108.12852143779936, "alt_km": 721.4623350458651, "timestamp": "2025-12-02T23:34:14.290230+00:00", "meta": {"OBJECT_NAME": "CZ-12 R/B", "OBJECT_ID": "2025-258K", "EPOCH": "2025-12-02T07:51:19.789632", "MEAN_MOTION": 14.42315787, "ECCENTRICITY": 0.00645749, "INCLINATION": 49.9959, "RA_OF_ASC_NODE": 303.1294, "ARG_OF_PERICENTER": 211.9853, "MEAN_ANOMALY": 147.714, "EPHEMERIS_TYPE": 0, "CLASSIFICATION_TYPE": "U", "NORAD_CAT_ID": 66421, "ELEMENT_SET_NO": 999, "REV_AT_EPOCH": 321, "BSTAR": 2.9462945e-05, "MEAN_MOTION_DOT": -7.1e-07, "MEAN_MOTION_DDOT": 0}, "tle": {"line1": "1 66421U 25258K   25336.32731238 -.00000071  00000+0  29463-4 0  9995", "line2": "2 66421  49.9959 303.1294 0064574 211.9853 147.7140 14.42315787  3215"}}, "geometry": {"type": "Point", "coordinates": [108.12852143779936, 14.079624505790784]}}, {"type": "Feature", "properties": {"norad_id": 66422, "name": "STARLINK-35617", "group": "last-30-days", "lat": 42.725435909174145, "lon": -173.20802221047646, "alt_km": 409.84246430922394, "timestamp": "2025-12-02T23:34:14.290241+00:00", "meta": {"OBJECT_NAME": "STARLINK-35617", "OBJECT_ID": "2025-259A", "EPOCH": "2025-12-02T12:00:05.998752", "MEAN_MOTION": 15.50712675, "ECCENTRICITY": 0.0001408, "INCLINATION": 42.9994, "RA_OF_ASC_NODE": 107.2341, "ARG_OF_PERICENTER": 256.2464, "MEAN_ANOMALY": 14.2201, "EPHEMERIS_TYPE": 0, "CLASSIFICATION_TYPE": "U", "NORAD_CAT_ID": 66422, "ELEMENT_SET_NO": 999, "REV_AT_EPOCH": 463, "BSTAR": -0.0060417, "MEAN_MOTION_DOT": -0.00341392, "MEAN_MOTION_DDOT": 0}, "tle": {"line1": "1 66422U 25259A   25336.50006943 -.00341392  00000+0 -60417-2 0  9992", "line2": "2 66422  42.9994 107.2341 0001408 256.2464  14.2201 15.50712675  4631"}}, "geometry": {"type": "Point", "coordinates": [-173.20802221047646, 42.725435909174145]}}]}